IRIDIUM 155             
1 43573U 18061E   25179.03586194  .00000111  00000+0  32507-4 0  9991
2 43573  86.3980 204.6414 0002442  84.8272 275.3202 14.34218255362605
IRIDIUM 154             
1 43574U 18061F   25179.15637099  .00000021  00000+0  54837-6 0  9998
2 43574  86.3984 204.7068 0002300  90.7150 269.4310 14.34217904362660
IRIDIUM 163             
1 43575U 18061G   25179.13734389  .00000048  00000+0  99501-5 0  9992
2 43575  86.3980 204.6412 0002493  91.7413 268.4068 14.34217955362637
IRIDIUM 156             
1 43576U 18061H   25179.11197281  .00000016  00000+0 -14783-5 0  9990
2 43576  86.3985 204.6587 0002215  81.3508 278.7939 14.34217744362613
IRIDIUM 164             
1 43577U 18061J   25178.81387079  .00000026  00000+0  21669-5 0  9994
2 43577  86.3983 204.8180 0002061  91.1158 269.0274 14.34217854362620
IRIDIUM 159             
1 43578U 18061K   25179.13100043  .00000026  00000+0  20465-5 0  9998
2 43578  86.3984 204.6295 0002151  96.5854 263.5587 14.34217818362636
IRIDIUM 180             
1 43922U 19002A   25179.13049751  .00000011  00000+0 -30936-5 0  9994
2 43922  86.3988 141.6112 0002405  86.6466 273.5005 14.34217648338283
IRIDIUM 176             
1 43923U 19002B   25178.91130422  .00000365  00000+0  54046-4 0  9994
2 43923  86.6114 141.6948 0003166  80.7799 279.3776 14.72254094347124
IRIDIUM 168             
1 43924U 19002C   25178.91484927  .00000054  00000+0  12152-4 0  9994
2 43924  86.3992 141.7685 0002314  85.6685 274.4775 14.34217752338197
IRIDIUM 173             
1 43925U 19002D   25179.18123895  .00000019  00000+0 -24463-6 0  9991
2 43925  86.3987 141.5607 0002475  84.7437 275.4041 14.34217557338221
IRIDIUM 169             
1 43926U 19002E   25178.72648080  .00000083  00000+0  20579-4 0  9991
2 43926  86.4251 173.3329 0003517  70.4183 289.7395 14.38610046339268
IRIDIUM 172             
1 43927U 19002F   25178.89582199  .00000010  00000+0 -36010-5 0  9997
2 43927  86.3991 141.6869 0002330  91.9106 268.2356 14.34217544338182
IRIDIUM 175             
1 43928U 19002G   25179.17815612  .00000643  00000+0  98045-4 0  9995
2 43928  86.1499  93.4741 0002275  61.8939 298.2507 14.72243266347155
IRIDIUM 171             
1 43929U 19002H   25178.94656155  .00000050  00000+0  10663-4 0  9997
2 43929  86.3997 141.9327 0002009  81.1764 278.9659 14.34217818338184
IRIDIUM 170             
1 43930U 19002J   25179.18935375  .00000569  00000+0  86372-4 0  9995
2 43930  86.6113 141.5834 0002721  79.6920 280.4603 14.72258258347176
IRIDIUM 167             
1 43931U 19002K   25178.94021933  .00000015  00000+0 -16574-5 0  9990
2 43931  86.3989 141.6877 0002160  74.4689 285.6745 14.34217599338181
IRIDIUM 181             
1 56726U 23068S   25179.11058022  .00000230  00000+0  62375-4 0  9999
2 56726  86.4520 204.6730 0001774  93.9290 266.2114 14.43310860111360
IRIDIUM 177             
1 56727U 23068T   25178.88735711  .00000397  00000+0  48662-4 0  9997
2 56727  86.1983 137.0515 0002394  84.7580 275.3914 14.80229368113959
IRIDIUM 174             
1 56728U 23068U   25179.17699581  .00000536  00000+0  81023-4 0  9998
2 56728  86.6120 141.6997 0003052  92.6454 267.5113 14.72256282113931
IRIDIUM 178             
1 56729U 23068V   25179.01166051  .00000349  00000+0  42466-4 0  9993
2 56729  86.6569 173.3166 0002710  91.3574 268.7958 14.80233258113979
IRIDIUM 179             
1 56730U 23068W   25178.73587641  .00000388  00000+0  47670-4 0  9990
2 56730  86.6810 181.3332 0002629  88.2357 271.9166 14.80234224113934
